COSMOS 2425 (716)       
1 29670U 06062A   18212.52027191 -.00000001  00000-0  10000-3 0  9995
2 29670  65.2579 291.0398 0019925 343.7841 259.4351  2.13105006 90251
COSMOS 2426 (717)       
1 29671U 06062B   18212.48394572 -.00000001  00000-0  10000-3 0  9991
2 29671  65.2747 291.1399 0019145 167.5017 263.2659  2.13102913 90261
COSMOS 2433 (720)       
1 32275U 07052A   18213.12895337 -.00000018  00000-0  10000-3 0  9990
2 32275  65.7097  51.8536 0000623 259.7160 281.6245  2.13104439 83785
COSMOS 2432 (719)       
1 32276U 07052B   18212.71449443 -.00000019  00000-0  10000-3 0  9999
2 32276  65.7210  51.9459 0010544 344.4411 190.8227  2.13103876 83776
COSMOS 2434 (721)       
1 32393U 07065A   18213.16017608 -.00000001  00000-0  00000+0 0  9993
2 32393  64.8722 289.9719 0004310 132.6214 320.6263  2.13103000 82498
COSMOS 2436 (723)       
1 32395U 07065C   18212.62095359 -.00000000  00000-0  10000-3 0  9998
2 32395  64.8818 290.0412 0013655 358.7550  91.5405  2.13104395 82417
COSMOS 2456 (730)       
1 36111U 09070A   18212.66418034  .00000052  00000-0  00000+0 0  9990
2 36111  64.1889 169.5794 0006361 302.5893 302.5179  2.13102980 67148
COSMOS 2457 (733)       
1 36112U 09070B   18213.08312310  .00000055  00000-0  00000+0 0  9991
2 36112  64.1716 169.4761 0005619 192.4781 140.6824  2.13101578 67159
COSMOS 2458 (734)       
1 36113U 09070C   18213.39977219  .00000058  00000-0  10000-3 0  9999
2 36113  64.1769 169.4767 0002821 320.8142 302.2181  2.13096661 67163
COSMOS 2459 (731)       
1 36400U 10007A   18213.08169493 -.00000019  00000-0  10000-3 0  9991
2 36400  65.6174  50.9116 0026708 356.3429   7.3323  2.13102187 65511
COSMOS 2461 (735)       
1 36401U 10007B   18213.21426374 -.00000018  00000-0  10000-3 0  9990
2 36401  65.6083  50.8808 0008841  71.9270 304.0494  2.13102393 65515
COSMOS 2460 (732)       
1 36402U 10007C   18212.67125281 -.00000020  00000-0  10000-3 0  9996
2 36402  65.6017  50.8670 0002185  77.1652 282.7478  2.13101549 65490
COSMOS 2464 (736)       
1 37139U 10041C   18212.58902999 -.00000000  00000-0  00000-0 0  9995
2 37139  64.4750 289.7743 0022211  11.9990 230.8885  2.13102747 61567
COSMOS 2471 (701K)      
1 37372U 11009A   18212.71449443 -.00000020  00000-0  00000+0 0  9995
2 37372  65.5972  50.8105 0006955 226.2735 311.7235  2.13107506 57772
COSMOS 2474 (742)       
1 37829U 11055A   18212.68869752  .00000053  00000-0  00000-0 0  9994
2 37829  64.5120 170.3167 0010655 253.3209 228.5339  2.13101878 53141
COSMOS 2476 (744)       
1 37867U 11064A   18213.33805400  .00000059  00000-0  00000+0 0  9994
2 37867  64.4933 170.3551 0020275 244.9620  61.1141  2.13101934 52507
COSMOS 2477 (745)       
1 37868U 11064B   18212.59749319  .00000053  00000-0  00000+0 0  9992
2 37868  64.5008 170.4290 0018113 246.7076  30.1027  2.13101798 52446
COSMOS 2475 (743)       
1 37869U 11064C   18212.99468956  .00000056  00000-0  00000+0 0  9995
2 37869  64.5075 170.4109 0022771 268.3150 269.9733  2.13102162 52462
COSMOS 2485 (747)       
1 39155U 13019A   18212.60832147  .00000053  00000-0  00000+0 0  9999
2 39155  64.6615 170.4992 0020641 240.4406 270.6702  2.13101993 40960
COSMOS 2492 (754)       
1 39620U 14012A   18212.86698674 -.00000020  00000-0  10000-3 0  9993
2 39620  65.4896  50.7399 0013696 337.0540  47.3212  2.13103345 33928
COSMOS 2500 (755)       
1 40001U 14032A   18213.26831390 -.00000018  00000-0  00000+0 0  9991
2 40001  65.4307  50.6918 0005022 186.8777   7.5606  2.13102698 32140
COSMOS 2501 (702K)      
1 40315U 14075A   18213.08495991 -.00000003  00000-0  00000+0 0  9993
2 40315  64.1994 290.9536 0016794 206.5873   8.3344  2.13098672 28549
COSMOS 2514 (751)       
1 41330U 16008A   18213.41845727 -.00000018  00000-0  00000+0 0  9998
2 41330  65.2321  50.7288 0008027 205.7943 284.8095  2.13103210 19312
COSMOS 2516 (753)       
1 41554U 16032A   18213.45745344 -.00000003  00000-0  00000+0 0  9995
2 41554  64.4191 290.8183 0013706 215.8575 195.6740  2.13101705 16927
COSMOS 2522 (752)       
1 42939U 17055A   18213.40044791 -.00000003  00000-0  00000+0 0  9992
2 42939  64.6508 290.8000 0008347 238.3396 355.8855  2.13101866  6679
